{"type": "FeatureCollection", "features": [ {"type": "Feature", "properties": {"norad_id": 57401, "name": "TIANMU-1 09", "group": "weather", "lat": 40.215165868196436, "lon": 22.731183758074295, "alt_km": 476.7309789586425, "timestamp": "2025-12-05T14:45:14.957931+00:00", "meta": {"OBJECT_NAME": "TIANMU-1 09", "OBJECT_ID": "2023-101C", "EPOCH": "2025-12-04T18:08:38.049216", "MEAN_MOTION": 15.27903646, "ECCENTRICITY": 0.0006767, "INCLINATION": 97.2835, "RA_OF_ASC_NODE": 28.1002, "ARG_OF_PERICENTER": 105.456, "MEAN_ANOMALY": 254.7427, "EPHEMERIS_TYPE": 0, "CLASSIFICATION_TYPE": "U", "NORAD_CAT_ID": 57401, "ELEMENT_SET_NO": 999, "REV_AT_EPOCH": 13193, "BSTAR": 0.0006083, "MEAN_MOTION_DOT": 0.00016525, "MEAN_MOTION_DDOT": 0}, "tle": {"line1": "1 57401U 23101C   25338.75599594  .00016525  00000+0  60830-3 0  9996", "line2": "2 57401  97.2835  28.1002 0006767 105.4560 254.7427 15.27903646131934"}}, "geometry": {"type": "Point", "coordinates": [22.731183758074295, 40.215165868196436]}}, {"type": "Feature", "properties": {"norad_id": 57402, "name": "TIANMU-1 10", "group": "weather", "lat": -32.82161676556588, "lon": -154.9554705947993, "alt_km": 490.21883326999887, "timestamp": "2025-12-05T14:45:14.957944+00:00", "meta": {"OBJECT_NAME": "TIANMU-1 10", "OBJECT_ID": "2023-101D", "EPOCH": "2025-12-04T17:23:31.882848", "MEAN_MOTION": 15.27892696, "ECCENTRICITY": 0.0008541, "INCLINATION": 97.2915, "RA_OF_ASC_NODE": 28.911, "ARG_OF_PERICENTER": 106.4919, "MEAN_ANOMALY": 253.7259, "EPHEMERIS_TYPE": 0, "CLASSIFICATION_TYPE": "U", "NORAD_CAT_ID": 57402, "ELEMENT_SET_NO": 999, "REV_AT_EPOCH": 13192, "BSTAR": 0.00056241, "MEAN_MOTION_DOT": 0.00015271, "MEAN_MOTION_DDOT": 0}, "tle": {"line1": "1 57402U 23101D   25338.72467457  .00015271  00000+0  56241-3 0  9994", "line2": "2 57402  97.2915  28.9110 0008541 106.4919 253.7259 15.27892696131926"}}, "geometry": {"type": "Point", "coordinates": [-154.9554705947993, -32.82161676556588]}}, {"type": "Feature", "properties": {"norad_id": 57490, "name": "FENGYUN 3F", "group": "weather", "lat": 0.5076797907208076, "lon": 47.94500814318251, "alt_km": 828.5325210930432, "timestamp": "2025-12-05T14:45:14.957955+00:00", "meta": {"OBJECT_NAME": "FENGYUN 3F", "OBJECT_ID": "2023-111A", "EPOCH": "2025-12-04T18:27:25.396416", "MEAN_MOTION": 14.19890321, "ECCENTRICITY": 6.75e-05, "INCLINATION": 98.7094, "RA_OF_ASC_NODE": 47.1908, "ARG_OF_PERICENTER": 88.6249, "MEAN_ANOMALY": 271.5005, "EPHEMERIS_TYPE": 0, "CLASSIFICATION_TYPE": "U", "NORAD_CAT_ID": 57490, "ELEMENT_SET_NO": 999, "REV_AT_EPOCH": 12127, "BSTAR": 0.00010818, "MEAN_MOTION_DOT": 1.86e-06, "MEAN_MOTION_DDOT": 0}, "tle": {"line1": "1 57490U 23111A   25338.76904394  .00000186  00000+0  10818-3 0  9991", "line2": "2 57490  98.7094  47.1908 0000675  88.6249 271.5005 14.19890321121279"}}, "geometry": {"type": "Point", "coordinates": [47.94500814318251, 0.5076797907208076]}}, {"type": "Feature", "properties": {"norad_id": 58584, "name": "ARKTIKA-M 2", "group": "weather", "lat": 62.64128811603151, "lon": -81.85918282418055, "alt_km": 37559.29589849957, "timestamp": "2025-12-05T14:45:14.957967+00:00", "meta": {"OBJECT_NAME": "ARKTIKA-M 2", "OBJECT_ID": "2023-198A", "EPOCH": "2025-12-03T08:34:19.284960", "MEAN_MOTION": 2.00605176, "ECCENTRICITY": 0.68642509, "INCLINATION": 63.2223, "RA_OF_ASC_NODE": 175.9121, "ARG_OF_PERICENTER": 268.1397, "MEAN_ANOMALY": 18.842, "EPHEMERIS_TYPE": 0, "CLASSIFICATION_TYPE": "U", "NORAD_CAT_ID": 58584, "ELEMENT_SET_NO": 999, "REV_AT_EPOCH": 1439, "BSTAR": 0, "MEAN_MOTION_DOT": 2.24e-06, "MEAN_MOTION_DDOT": 0}, "tle": {"line1": "1 58584U 23198A   25337.35716765  .00000224  00000+0  00000+0 0  9999", "line2": "2 58584  63.2223 175.9121 6864250 268.1397  18.8420  2.00605176 14390"}}, "geometry": {"type": "Point", "coordinates": [-81.85918282418055, 62.64128811603151]}}, {"type": "Feature", "properties": {"norad_id": 58645, "name": "TIANMU-1 11", "group": "weather", "lat": 58.442771037583505, "lon": -168.4854995426315, "alt_km": 491.4591359439628, "timestamp": "2025-12-05T14:45:14.957980+00:00", "meta": {"OBJECT_NAME": "TIANMU-1 11", "OBJECT_ID": "2023-205A", "EPOCH": "2025-12-04T17:44:49.966944", "MEAN_MOTION": 15.24450808, "ECCENTRICITY": 0.0008687, "INCLINATION": 97.3606, "RA_OF_ASC_NODE": 358.5045, "ARG_OF_PERICENTER": 341.9312, "MEAN_ANOMALY": 18.1615, "EPHEMERIS_TYPE": 0, "CLASSIFICATION_TYPE": "U", "NORAD_CAT_ID": 58645, "ELEMENT_SET_NO": 999, "REV_AT_EPOCH": 10787, "BSTAR": 0.00055504, "MEAN_MOTION_DOT": 0.00013581, "MEAN_MOTION_DDOT": 0}, "tle": {"line1": "1 58645U 23205A   25338.73946721  .00013581  00000+0  55504-3 0  9999", "line2": "2 58645  97.3606 358.5045 0008687 341.9312  18.1615 15.24450808107875"}}, "geometry": {"type": "Point", "coordinates": [-168.4854995426315, 58.442771037583505]}}, {"type": "Feature", "properties": {"norad_id": 58646, "name": "TIANMU-1 12", "group": "weather", "lat": -24.26933401557227, "lon": 2.512933161190396, "alt_km": 493.8760127881533, "timestamp": "2025-12-05T14:45:14.957991+00:00", "meta": {"OBJECT_NAME": "TIANMU-1 12", "OBJECT_ID": "2023-205B", "EPOCH": "2025-12-04T18:22:50.401632", "MEAN_MOTION": 15.24364412, "ECCENTRICITY": 0.0006505, "INCLINATION": 97.3593, "RA_OF_ASC_NODE": 358.3386, "ARG_OF_PERICENTER": 327.358, "MEAN_ANOMALY": 32.7254, "EPHEMERIS_TYPE": 0, "CLASSIFICATION_TYPE": "U", "NORAD_CAT_ID": 58646, "ELEMENT_SET_NO": 999, "REV_AT_EPOCH": 10786, "BSTAR": 0.0005265, "MEAN_MOTION_DOT": 0.00012838, "MEAN_MOTION_DDOT": 0}, "tle": {"line1": "1 58646U 23205B   25338.76586113  .00012838  00000+0  52650-3 0  9991", "line2": "2 58646  97.3593 358.3386 0006505 327.3580  32.7254 15.24364412107864"}}, "geometry": {"type": "Point", "coordinates": [2.512933161190396, -24.26933401557227]}}, {"type": "Feature", "properties": {"norad_id": 58647, "name": "TIANMU-1 13", "group": "weather", "lat": 28.85521428835016, "lon": -176.54450310306518, "alt_km": 495.0730331965042, "timestamp": "2025-12-05T14:45:14.958001+00:00", "meta": {"OBJECT_NAME": "TIANMU-1 13", "OBJECT_ID": "2023-205C", "EPOCH": "2025-12-04T19:11:21.905376", "MEAN_MOTION": 15.24372607, "ECCENTRICITY": 0.0006291, "INCLINATION": 97.3622, "RA_OF_ASC_NODE": 358.5692, "ARG_OF_PERICENTER": 303.189, "MEAN_ANOMALY": 56.8744, "EPHEMERIS_TYPE": 0, "CLASSIFICATION_TYPE": "U", "NORAD_CAT_ID": 58647, "ELEMENT_SET_NO": 999, "REV_AT_EPOCH": 10786, "BSTAR": 0.00055143, "MEAN_MOTION_DOT": 0.00013454, "MEAN_MOTION_DDOT": 0}, "tle": {"line1": "1 58647U 23205C   25338.79955909  .00013454  00000+0  55143-3 0  9993", "line2": "2 58647  97.3622 358.5692 0006291 303.1890  56.8744 15.24372607107864"}}, "geometry": {"type": "Point", "coordinates": [-176.54450310306518, 28.85521428835016]}}, {"type": "Feature", "properties": {"norad_id": 58648, "name": "TIANMU-1 14", "group": "weather", "lat": -61.38467253666682, "lon": 165.02911608370934, "alt_km": 497.5965583219395, "timestamp": "2025-12-05T14:45:14.958012+00:00", "meta": {"OBJECT_NAME": "TIANMU-1 14", "OBJECT_ID": "2023-205D", "EPOCH": "2025-12-04T17:12:48.544128", "MEAN_MOTION": 15.24355337, "ECCENTRICITY": 0.0007177, "INCLINATION": 97.3554, "RA_OF_ASC_NODE": 357.8445, "ARG_OF_PERICENTER": 308.2097, "MEAN_ANOMALY": 51.8494, "EPHEMERIS_TYPE": 0, "CLASSIFICATION_TYPE": "U", "NORAD_CAT_ID": 58648, "ELEMENT_SET_NO": 999, "REV_AT_EPOCH": 10785, "BSTAR": 0.0005379, "MEAN_MOTION_DOT": 0.00013117, "MEAN_MOTION_DDOT": 0}, "tle": {"line1": "1 58648U 23205D   25338.71722852  .00013117  00000+0  53790-3 0  9997", "line2": "2 58648  97.3554 357.8445 0007177 308.2097  51.8494 15.24355337107853"}}, "geometry": {"type": "Point", "coordinates": [165.02911608370934, -61.38467253666682]}}, {"type": "Feature", "properties": {"norad_id": 58660, "name": "TIANMU-1 19", "group": "weather", "lat": 51.71994831863082, "lon": 81.13638829469181, "alt_km": 479.74909690730965, "timestamp": "2025-12-05T14:45:14.958022+00:00", "meta": {"OBJECT_NAME": "TIANMU-1 19", "OBJECT_ID": "2023-208A", "EPOCH": "2025-12-04T18:05:20.461056", "MEAN_MOTION": 15.2762508, "ECCENTRICITY": 0.0004085, "INCLINATION": 97.4397, "RA_OF_ASC_NODE": 89.8083, "ARG_OF_PERICENTER": 288.7664, "MEAN_ANOMALY": 71.3132, "EPHEMERIS_TYPE": 0, "CLASSIFICATION_TYPE": "U", "NORAD_CAT_ID": 58660, "ELEMENT_SET_NO": 999, "REV_AT_EPOCH": 10760, "BSTAR": 0.00068391, "MEAN_MOTION_DOT": 0.00018426, "MEAN_MOTION_DDOT": 0}, "tle": {"line1": "1 58660U 23208A   25338.75370904  .00018426  00000+0  68391-3 0  9996", "line2": "2 58660  97.4397  89.8083 0004085 288.7664  71.3132 15.27625080107607"}}, "geometry": {"type": "Point", "coordinates": [81.13638829469181, 51.71994831863082]}}, {"type": "Feature", "properties": {"norad_id": 58661, "name": "TIANMU-1 20", "group": "weather", "lat": 80.36536381676476, "lon": -38.618797181578394, "alt_km": 476.01312355887876, "timestamp": "2025-12-05T14:45:14.958034+00:00", "meta": {"OBJECT_NAME": "TIANMU-1 20", "OBJECT_ID": "2023-208B", "EPOCH": "2025-12-04T17:54:51.125184", "MEAN_MOTION": 15.28816396, "ECCENTRICITY": 0.0006435, "INCLINATION": 97.4334, "RA_OF_ASC_NODE": 90.2409, "ARG_OF_PERICENTER": 299.2642, "MEAN_ANOMALY": 60.7954, "EPHEMERIS_TYPE": 0, "CLASSIFICATION_TYPE": "U", "NORAD_CAT_ID": 58661, "ELEMENT_SET_NO": 999, "REV_AT_EPOCH": 10767, "BSTAR": 0.00064987, "MEAN_MOTION_DOT": 0.00018159, "MEAN_MOTION_DDOT": 0}, "tle": {"line1": "1 58661U 23208B   25338.74642506  .00018159  00000+0  64987-3 0  9996", "line2": "2 58661  97.4334  90.2409 0006435 299.2642  60.7954 15.28816396107675"}}, "geometry": {"type": "Point", "coordinates": [-38.618797181578394, 80.36536381676476]}}]}